NORAD_CAT_ID,OBJECT_NAME,OBJECT_TYPE,EPOCH,MEAN_MOTION,ECCENTRICITY,INCLINATION,RA_OF_ASC_NODE,ARG_OF_PERICENTER,MEAN_ANOMALY,BSTAR,MEAN_MOTION_DOT,MEAN_MOTION_DDOT,TLE_LINE0,TLE_LINE1,TLE_LINE2,SEMIMAJOR_AXIS,PERIOD,APOGEE,PERIGEE,DECAYED
51772.0,STARLINK-3623,PAYLOAD,2023-06-05 10:17:06,15.08839489,0.0001116,53.2156,185.3795,88.7626,271.3494,2.8066e-05,1.59e-06,0.0,0 STARLINK-3623,1 51772U 22017E   23156.42855296  .00000159  00000-0  28066-4 0  9993,2 51772  53.2156 185.3795 0001116  88.7626 271.3494 15.08839489 70383,6917.882,95.438,540.519,538.975,0.0
51772.0,STARLINK-3623,PAYLOAD,2023-06-06 10:07:54,15.08836534,0.0001154,53.2158,180.919,101.8483,258.2638,-1.1239e-06,-3.06e-06,0.0,0 STARLINK-3623,1 51772U 22017E   23157.42215663 -.00000306  00000-0 -11239-5 0  9993,2 51772  53.2158 180.9190 0001154 101.8483 258.2638 15.08836534 70534,6917.891,95.438,540.554,538.958,0.0
51772.0,STARLINK-3623,PAYLOAD,2023-06-07 06:47:55,15.08836011,0.0001055,53.2156,177.0544,90.0377,270.0736,1.946e-05,2.2e-07,0.0,0 STARLINK-3623,1 51772U 22017E   23158.28327866  .00000022  00000-0  19460-4 0  9993,2 51772  53.2156 177.0544 0001055  90.0377 270.0736 15.08836011 70668,6917.893,95.438,540.487,539.028,0.0
51772.0,STARLINK-3623,PAYLOAD,2023-06-07 17:55:37,15.08835932,0.0001043,53.2156,174.9728,89.1482,270.963,3.4604e-05,2.63e-06,0.0,0 STARLINK-3623,1 51772U 22017E   23158.74695932  .00000263  00000-0  34604-4 0  9990,2 51772  53.2156 174.9728 0001043  89.1482 270.9630 15.08835932 72240,6917.893,95.438,540.479,539.036,0.0
51772.0,STARLINK-3623,PAYLOAD,2023-06-08 09:49:28,15.08837827,0.0001034,53.2153,171.999,88.0638,272.0472,5.154e-05,5.33e-06,0.0,0 STARLINK-3623,1 51772U 22017E   23159.40935928  .00000533  00000-0  51540-4 0  9994,2 51772  53.2153 171.9990 0001034  88.0638 272.0472 15.08837827 70831,6917.887,95.438,540.467,539.037,0.0
51772.0,STARLINK-3623,PAYLOAD,2023-06-09 00:07:57,15.08837027,0.0001067,53.2154,169.322,88.393,271.7184,5.0482e-05,5.16e-06,0.0,0 STARLINK-3623,1 51772U 22017E   23160.00552087  .00000516  00000-0  50482-4 0  9998,2 51772  53.2154 169.3220 0001067  88.3930 271.7184 15.08837027 72439,6917.889,95.438,540.493,539.016,0.0
51772.0,STARLINK-3623,PAYLOAD,2023-06-09 08:04:52,15.0883914,0.0001047,53.2154,167.8354,88.6924,271.4188,5.1639e-05,5.34e-06,0.0,0 STARLINK-3623,1 51772U 22017E   23160.33671988  .00000534  00000-0  51639-4 0  9991,2 51772  53.2154 167.8354 0001047  88.6924 271.4188 15.08839140 70970,6917.883,95.438,540.472,539.024,0.0
51772.0,STARLINK-3623,PAYLOAD,2023-06-09 17:37:11,15.08839168,0.0001019,53.2153,166.0513,90.3013,269.8096,4.7431e-05,4.67e-06,0.0,0 STARLINK-3623,1 51772U 22017E   23160.73416000  .00000467  00000-0  47431-4 0  9997,2 51772  53.2153 166.0513 0001019  90.3013 269.8096 15.08839168 71032,6917.883,95.438,540.453,539.043,0.0
51772.0,STARLINK-3623,PAYLOAD,2023-06-10 09:31:02,15.08841102,0.0001069,53.2156,163.0776,89.2613,270.8501,4.2644e-05,3.91e-06,0.0,0 STARLINK-3623,1 51772U 22017E   23161.39655932  .00000391  00000-0  42644-4 0  9996,2 51772  53.2156 163.0776 0001069  89.2613 270.8501 15.08841102 72643,6917.877,95.437,540.482,539.002,0.0
51772.0,STARLINK-3623,PAYLOAD,2023-06-10 19:03:21,15.08837122,0.0001085,53.2156,161.2934,88.8231,271.2886,1.7332e-05,-1.2e-07,0.0,0 STARLINK-3623,1 51772U 22017E   23161.79400289 -.00000012  00000-0  17332-4 0  9990,2 51772  53.2156 161.2934 0001085  88.8231 271.2886 15.08837122 71195,6917.889,95.438,540.505,539.004,0.0
51772.0,STARLINK-3623,PAYLOAD,2023-06-11 04:35:40,15.08837079,0.0001095,53.2156,159.5092,88.6923,271.4194,7.4852e-06,-1.69e-06,0.0,0 STARLINK-3623,1 51772U 22017E   23162.19144401 -.00000169  00000-0  74852-5 0  9990,2 51772  53.2156 159.5092 0001095  88.6923 271.4194 15.08837079 71259,6917.889,95.438,540.512,538.997,0.0
51772.0,STARLINK-3623,PAYLOAD,2023-06-11 17:18:45,15.08839599,0.0001095,53.2157,157.1302,87.9638,272.148,3.4616e-05,2.63e-06,0.0,0 STARLINK-3623,1 51772U 22017E   23162.72136189  .00000263  00000-0  34616-4 0  9990,2 51772  53.2157 157.1302 0001095  87.9638 272.1480 15.08839599 71337,6917.882,95.438,540.504,538.989,0.0
51772.0,STARLINK-3623,PAYLOAD,2023-06-12 06:01:50,15.08843291,0.0001079,53.2155,154.7508,87.6431,272.4685,6.2551e-05,7.08e-06,0.0,0 STARLINK-3623,1 51772U 22017E   23163.25127803  .00000708  00000-0  62551-4 0  9995,2 51772  53.2155 154.7508 0001079  87.6431 272.4685 15.08843291 72926,6917.87,95.437,540.482,538.989,0.0
51772.0,STARLINK-3623,PAYLOAD,2023-06-12 23:31:05,15.08836771,0.0001075,53.2153,151.4797,84.0467,276.0648,4.5545e-05,4.37e-06,0.0,0 STARLINK-3623,1 51772U 22017E   23163.97992270  .00000437  00000-0  45545-4 0  9995,2 51772  53.2153 151.4797 0001075  84.0467 276.0648 15.08836771 73031,6917.89,95.438,540.499,539.012,0.0
51772.0,STARLINK-3623,PAYLOAD,2023-06-13 09:03:24,15.08837499,0.0001089,53.2158,149.6953,83.9168,276.1948,2.4435e-05,1.01e-06,0.0,0 STARLINK-3623,1 51772U 22017E   23164.37736331  .00000101  00000-0  24435-4 0  9997,2 51772  53.2158 149.6953 0001089  83.9168 276.1948 15.08837499 71580,6917.888,95.438,540.506,539.0,0.0
51772.0,STARLINK-3623,PAYLOAD,2023-06-14 07:18:48,15.0883785,0.0001198,53.2163,145.5329,86.6366,273.4763,-5.3343e-06,-3.73e-06,0.0,0 STARLINK-3623,1 51772U 22017E   23165.30472502 -.00000373  00000-0 -53343-5 0  9992,2 51772  53.2163 145.5329 0001198  86.6366 273.4763 15.08837850 73239,6917.887,95.438,540.581,538.923,0.0
51772.0,STARLINK-3623,PAYLOAD,2023-06-14 15:15:44,15.088364,0.0001186,53.2162,144.0459,85.2418,274.8709,-3.7276e-06,-3.47e-06,0.0,0 STARLINK-3623,1 51772U 22017E   23165.63592633 -.00000347  00000-0 -37276-5 0  9994,2 51772  53.2162 144.0459 0001186  85.2418 274.8709 15.08836400 71778,6917.891,95.438,540.577,538.936,0.0
51772.0,STARLINK-3623,PAYLOAD,2023-06-15 08:44:58,15.08836793,0.0001169,53.2163,140.7757,88.165,271.9476,3.5722e-05,2.81e-06,0.0,0 STARLINK-3623,1 51772U 22017E   23166.36456663  .00000281  00000-0  35722-4 0  9995,2 51772  53.2163 140.7757 0001169  88.1650 271.9476 15.08836793 73398,6917.89,95.438,540.564,538.946,0.0
51772.0,STARLINK-3623,PAYLOAD,2023-06-15 16:41:54,15.08834158,0.0001144,53.2162,139.2887,87.7817,272.3306,2.2693e-05,7.3e-07,0.0,0 STARLINK-3623,1 51772U 22017E   23166.69576976  .00000073  00000-0  22693-4 0  9993,2 51772  53.2162 139.2887 0001144  87.7817 272.3306 15.08834158 71935,6917.898,95.438,540.555,538.972,0.0
51772.0,STARLINK-3623,PAYLOAD,2023-06-16 07:00:22,15.08841014,0.0001185,53.2162,136.6126,88.4315,271.6813,6.0066e-05,6.68e-06,0.0,0 STARLINK-3623,1 51772U 22017E   23167.29192604  .00000668  00000-0  60066-4 0  9998,2 51772  53.2162 136.6126 0001185  88.4315 271.6813 15.08841014 72023,6917.877,95.437,540.562,538.923,0.0
51772.0,STARLINK-3623,PAYLOAD,2023-06-17 06:51:09,15.08844226,0.000119,53.2159,132.1518,88.5989,271.5139,8.3908e-05,1.048e-05,0.0,0 STARLINK-3623,1 51772U 22017E   23168.28552281  .00001048  00000-0  83908-4 0  9992,2 51772  53.2159 132.1518 0001190  88.5989 271.5139 15.08844226 73680,6917.867,95.437,540.556,538.909,0.0
51772.0,STARLINK-3623,PAYLOAD,2023-06-17 14:48:05,15.08834808,0.0001336,53.2168,130.6652,80.1994,279.9149,-2.5299e-05,-6.9e-06,0.0,0 STARLINK-3623,1 51772U 22017E   23168.61673342 -.00000690  00000-0 -25299-4 0  9994,2 51772  53.2168 130.6652 0001336  80.1994 279.9149 15.08834808 73732,6917.896,95.438,540.685,538.837,0.0
51772.0,STARLINK-3623,PAYLOAD,2023-06-18 03:31:11,15.08827991,0.0001342,53.2178,128.2847,82.137,277.9775,-2.4276e-05,-6.74e-06,0.0,0 STARLINK-3623,1 51772U 22017E   23169.14666041 -.00000674  00000-0 -24276-4 0  9997,2 51772  53.2178 128.2847 0001342  82.1370 277.9775 15.08827991 73816,6917.917,95.438,540.71,538.854,0.0
51772.0,STARLINK-3623,PAYLOAD,2023-06-18 06:41:57,15.08827643,0.0001385,53.2167,127.6919,82.3712,277.7437,-6.6189e-05,-1.341e-05,0.0,0 STARLINK-3623,1 51772U 22017E   23169.27914321 -.00001341  00000-0 -66189-4 0  9999,2 51772  53.2167 127.6919 0001385  82.3712 277.7437 15.08827643 72328,6917.918,95.438,540.741,538.825,0.0
51772.0,STARLINK-3623,PAYLOAD,2023-06-18 14:38:53,15.08830158,0.000129,53.2166,126.2021,88.3867,271.7272,-5.3305e-05,-1.136e-05,0.0,0 STARLINK-3623,1 51772U 22017E   23169.61034248 -.00001136  00000-0 -53305-4 0  9996,2 51772  53.2166 126.2021 0001290  88.3867 271.7272 15.08830158 72379,6917.91,95.438,540.668,538.883,0.0
51772.0,STARLINK-3623,PAYLOAD,2023-06-19 03:21:57,15.08845565,0.0001285,53.2169,123.8265,91.6488,268.4652,4.1141e-05,3.67e-06,0.0,0 STARLINK-3623,1 51772U 22017E   23170.14024875  .00000367  00000-0  41141-4 0  9999,2 51772  53.2169 123.8265 0001285  91.6488 268.4652 15.08845565 73964,6917.863,95.437,540.617,538.839,0.0
51772.0,STARLINK-3623,PAYLOAD,2023-06-19 06:32:43,15.0884502,0.0001252,53.2166,123.2294,92.3802,267.7334,9.2644e-05,1.187e-05,0.0,0 STARLINK-3623,1 51772U 22017E   23170.27272676  .00001187  00000-0  92644-4 0  9992,2 51772  53.2166 123.2294 0001252  92.3802 267.7334 15.08845020 72479,6917.865,95.437,540.596,538.864,0.0
51772.0,STARLINK-3623,PAYLOAD,2023-06-19 14:29:39,15.08846419,0.0001284,53.2165,121.7436,83.9974,276.1165,5.3922e-05,5.71e-06,0.0,0 STARLINK-3623,1 51772U 22017E   23170.60392662  .00000571  00000-0  53922-4 0  9999,2 51772  53.2165 121.7436 0001284  83.9974 276.1165 15.08846419 72525,6917.861,95.437,540.614,538.838,0.0
51772.0,STARLINK-3623,PAYLOAD,2023-06-20 03:12:44,15.08837011,0.0001277,53.2163,119.3647,80.8535,279.2601,0.00014169,1.968e-05,0.0,0 STARLINK-3623,1 51772U 22017E   23171.13385057  .00001968  00000-0  14169-3 0  9998,2 51772  53.2163 119.3647 0001277  80.8535 279.2601 15.08837011 74115,6917.89,95.438,540.638,538.871,0.0
51772.0,STARLINK-3623,PAYLOAD,2023-06-20 06:23:30,15.08841505,0.0001301,53.2167,118.7708,80.7723,279.3417,0.0001188,1.603e-05,0.0,0 STARLINK-3623,1 51772U 22017E   23171.26632870  .00001603  00000-0  11880-3 0  9993,2 51772  53.2167 118.7708 0001301  80.7723 279.3417 15.08841505 72629,6917.876,95.437,540.641,538.841,0.0
